{
    "satellites": [
        {
            "name": "starlink367",
            "title": "Starlink-367 (G10-46)",
            "tle": [
                "1 70161C 26054AE  26083.91784722 -.02087000  00000+0 -65287-2 0   833",
                "2 70161  53.1592 236.2142 0000595  54.9174 316.5580 15.91804018    17"
            ],
            "stdMag": 5,
            "noradId": "70161",
            "intDes": null,
            "tleUrl": "http://celestrak.org/NORAD/elements/supplemental/sup-gp.php?FILE=starlink&FORMAT=tle",
            "launchDate": "2026-03-17T13:27:34.000Z",
            "active": true
        },
        {
            "name": "starlink366",
            "title": "Starlink-366 (G17-24)",
            "tle": [
                "1 68229C 26053Y   26083.92131944 -.01971100  00000+0 -53184-2 0   832",
                "2 68229  97.2765 318.8829 0001320 103.8804 240.9582 15.95326595    15"
            ],
            "stdMag": 5,
            "noradId": "68229",
            "intDes": null,
            "tleUrl": "http://celestrak.org/NORAD/elements/supplemental/sup-gp.php?FILE=starlink&FORMAT=tle",
            "launchDate": "2026-03-17T05:19:09.000Z",
            "active": true,
            "batch": [
                {
                    "noradId": "68229",
                    "tle": [
                        "1 68229C 26053Y   26083.92131944 -.01971100  00000+0 -53184-2 0   832",
                        "2 68229  97.2765 318.8829 0001320 103.8804 240.9582 15.95326595    15"
                    ]
                },
                {
                    "noradId": "68231",
                    "tle": [
                        "1 68231C 26053AA  26083.80118056 -.02052900  00000+0 -54399-2 0   839",
                        "2 68231  97.2764 318.7527 0001299  91.1188 281.5775 15.95711458    11"
                    ]
                }
            ]
        },
        {
            "name": "starlink365",
            "title": "Starlink-365 (G10-48)",
            "tle": [
                "1 68167C 26050A   26083.89006944 -.00011060  00000+0 -55937-4 0   836",
                "2 68167  53.1594 205.6642 0000791  63.6680  98.5222 15.80873113    14"
            ],
            "stdMag": 5,
            "noradId": "68167",
            "intDes": null,
            "tleUrl": "http://celestrak.org/NORAD/elements/supplemental/sup-gp.php?FILE=starlink&FORMAT=tle",
            "launchDate": "2026-03-14T12:37:10.000Z",
            "active": true,
            "batch": [
                {
                    "noradId": "68167",
                    "tle": [
                        "1 68167C 26050A   26083.89006944 -.00011060  00000+0 -55937-4 0   836",
                        "2 68167  53.1594 205.6642 0000791  63.6680  98.5222 15.80873113    14"
                    ]
                },
                {
                    "noradId": "68168",
                    "tle": [
                        "1 68168C 26050B   26083.56993056  .00021203  00000+0  10735-3 0   834",
                        "2 68168  53.1597 207.2592 0001301  69.2729  74.2197 15.80831813    17"
                    ]
                },
                {
                    "noradId": "68169",
                    "tle": [
                        "1 68169C 26050C   26083.92965278 -.00028008  00000+0 -14165-3 0   833",
                        "2 68169  53.1594 205.4477 0000919 100.9208 295.2129 15.80881774    17"
                    ]
                },
                {
                    "noradId": "68170",
                    "tle": [
                        "1 68170C 26050D   26083.65743056  .00091172  00000+0  46138-3 0   838",
                        "2 68170  53.1599 206.8033 0000584 112.3532 177.9431 15.80809428    10"
                    ]
                }
            ]
        },
        {
            "name": "starlink364",
            "title": "Starlink-364 (G17-31)",
            "tle": [
                "1 68142C 26049A   26083.79909722 -.01789900  00000+0 -91578-2 0   837",
                "2 68142  97.2819 103.7516 0001285  96.3243 286.5566 15.82222326    17"
            ],
            "stdMag": 5,
            "noradId": "68142",
            "intDes": null,
            "tleUrl": "http://celestrak.org/NORAD/elements/supplemental/sup-gp.php?FILE=starlink&FORMAT=tle",
            "launchDate": "2026-03-13T14:57:59.000Z",
            "active": true,
            "batch": [
                {
                    "noradId": "68142",
                    "tle": [
                        "1 68142C 26049A   26083.79909722 -.01789900  00000+0 -91578-2 0   837",
                        "2 68142  97.2819 103.7516 0001285  96.3243 286.5566 15.82222326    17"
                    ]
                },
                {
                    "noradId": "68143",
                    "tle": [
                        "1 68143C 26049B   26083.83590278 -.01811000  00000+0 -92527-2 0   837",
                        "2 68143  97.2821 103.7921 0001672  81.4645 154.9597 15.82262278    14"
                    ]
                }
            ]
        }
    ],
    "config": {}
}